LANDSAT 9               
1 49260U 21088A   24216.75885761  .00000867  00000+0  20243-3 0  9996
2 49260  98.2296 285.7636 0001379  89.6546 270.4811 14.57107380151617
